COSMOS 2242             
1 22626U 93024A   26080.53718187  .00002018  00000+0  17469-3 0  9992
2 22626  82.5153 255.3809 0014904 265.3762  94.5758 14.96596927782165
SL-16 R/B               
1 22803U 93059B   26080.47571223  .00000193  00000+0  11894-3 0  9996
2 22803  70.9930 346.2738 0017843 199.4469 160.5976 14.17234546681201
ARIANE 40 R/B           
1 22830U 93061H   26080.43007668  .00000186  00000+0  83887-4 0  9996
2 22830  98.4894 149.0848 0009674 246.2121 113.8049 14.32866698695781
COSMOS 2278             
1 23087U 94023A   26080.54999543 -.00000213  00000+0 -86435-4 0  9999
2 23087  71.0537 150.2865 0008823 353.4392   6.6614 14.14378037646481
SL-16 R/B               
1 23088U 94023B   26080.59115463  .00000129  00000+0  91362-4 0  9995
2 23088  70.9998  45.8906 0005480 274.1004  85.9492 14.15010693647770
SL-16 R/B               
1 23343U 94074B   26080.57901510  .00000459  00000+0  68088-4 0  9994
2 23343  97.7093 110.9146 0006734 170.0360 341.5898 14.79421039689002
SL-16 R/B               
1 23405U 94077B   26080.14414804  .00000270  00000+0  16240-3 0  9997
2 23405  70.9847 328.3929 0002419 199.8144 160.2885 14.15566762617859
ARIANE 40+ R/B          
1 23561U 95021B   26080.48227250  .00000274  00000+0  10115-3 0  9993
2 23561  98.4476 151.8039 0007957 105.8690 264.6554 14.39780466620942
SL-16 R/B               
1 23705U 95058B   26080.57568638 -.00000035  00000+0  64524-5 0  9992
2 23705  71.0221 155.3027 0010212 103.8504 256.3755 14.15500885569530
SL-16 R/B               
1 24298U 96051B   26080.56820602  .00000106  00000+0  83812-4 0  9993
2 24298  70.7597 150.0984 0014074 129.3043 230.9327 14.12418870523324
ORBVIEW 2 (SEASTAR)     
1 24883U 97037A   26080.47630961  .00000266  00000+0  10873-3 0  9998
2 24883  98.8586 245.1015 0002722  46.6732 313.4679 14.35502977510169
SL-16 R/B               
1 25400U 98043G   26080.58918913  .00000061  00000+0  44421-4 0  9990
2 25400  98.8276  34.0383 0009588 346.3565  13.7354 14.26052328440684
